NORAD_CAT_ID,OBJECT_NAME,OBJECT_TYPE,EPOCH,MEAN_MOTION,ECCENTRICITY,INCLINATION,RA_OF_ASC_NODE,ARG_OF_PERICENTER,MEAN_ANOMALY,BSTAR,MEAN_MOTION_DOT,MEAN_MOTION_DDOT,TLE_LINE0,TLE_LINE1,TLE_LINE2,SEMIMAJOR_AXIS,PERIOD,APOGEE,PERIGEE,DECAYED
53569.0,STARLINK-4582,PAYLOAD,2024-05-13 18:20:29,15.08844928,0.00014,53.2151,159.1135,70.2419,289.8724,0.0008672,0.00013542,0.0,0 STARLINK-4582,1 53569U 22101AU  24134.76423111  .00013542  00000-0  86720-3 0  9994,2 53569  53.2151 159.1135 0001400  70.2419 289.8724 15.08844928 96734,6917.865,95.437,540.699,538.762,0.0
53569.0,STARLINK-4582,PAYLOAD,2024-05-14 08:38:57,15.08860876,0.0001395,53.2151,156.4373,70.7738,289.3405,0.00061083,9.452e-05,0.0,0 STARLINK-4582,1 53569U 22101AU  24135.36038326  .00009452  00000-0  61083-3 0  9991,2 53569  53.2151 156.4373 0001395  70.7738 289.3405 15.08860876 96157,6917.817,95.436,540.647,538.717,0.0
53569.0,STARLINK-4582,PAYLOAD,2024-05-14 18:11:15,15.08869512,0.0001388,53.2149,154.653,69.9974,290.1167,0.00066655,0.00010345,0.0,0 STARLINK-4582,1 53569U 22101AU  24135.75781638  .00010345  00000-0  66655-3 0  9998,2 53569  53.2149 154.6530 0001388  69.9974 290.1167 15.08869512 96884,6917.79,95.436,540.615,538.695,0.0
53569.0,STARLINK-4582,PAYLOAD,2024-05-15 10:05:05,15.08884398,0.0001416,53.2149,151.6794,70.829,289.2855,0.00082206,0.00012835,0.0,0 STARLINK-4582,1 53569U 22101AU  24136.42020079  .00012835  00000-0  82206-3 0  9994,2 53569  53.2149 151.6794 0001416  70.8290 289.2855 15.08884398 96317,6917.745,95.435,540.589,538.63,0.0
53569.0,STARLINK-4582,PAYLOAD,2024-05-16 05:09:42,15.0886355,0.0001506,53.2147,148.111,63.7361,296.3786,0.00027985,4.171e-05,0.0,0 STARLINK-4582,1 53569U 22101AU  24137.21507381  .00004171  00000-0  27985-3 0  9995,2 53569  53.2147 148.1110 0001506  63.7361 296.3786 15.08863550 96430,6917.808,95.436,540.715,538.632,0.0
53569.0,STARLINK-4582,PAYLOAD,2024-05-16 08:20:28,15.0886238,0.0001423,53.2149,147.5163,74.3859,285.729,0.00028087,4.188e-05,0.0,0 STARLINK-4582,1 53569U 22101AU  24137.34755207  .00004188  00000-0  28087-3 0  9993,2 53569  53.2149 147.5163 0001423  74.3859 285.7290 15.08862380 97120,6917.812,95.436,540.661,538.693,0.0
53569.0,STARLINK-4582,PAYLOAD,2024-05-16 17:52:47,15.08856822,0.0001367,53.2146,145.7335,79.4024,280.7122,0.0001228,1.668e-05,0.0,0 STARLINK-4582,1 53569U 22101AU  24137.74498990  .00001668  00000-0  12280-3 0  9998,2 53569  53.2146 145.7335 0001367  79.4024 280.7122 15.08856822 96510,6917.829,95.436,540.64,538.748,0.0
53569.0,STARLINK-4582,PAYLOAD,2024-05-17 05:00:29,15.08847547,0.0001484,53.2149,143.6506,80.7005,279.4155,-0.00012618,-2.296e-05,0.0,0 STARLINK-4582,1 53569U 22101AU  24138.20867117 -.00002296  00000-0 -12618-3 0  9996,2 53569  53.2149 143.6506 0001484  80.7005 279.4155 15.08847547 96586,6917.857,95.437,540.749,538.696,0.0
53569.0,STARLINK-4582,PAYLOAD,2024-05-17 06:35:52,15.08850707,0.0001477,53.215,143.3533,80.372,279.7439,-0.00012325,-2.25e-05,0.0,0 STARLINK-4582,1 53569U 22101AU  24138.27491099 -.00002250  00000-0 -12325-3 0  9990,2 53569  53.2150 143.3533 0001477  80.3720 279.7439 15.08850707 97263,6917.848,95.437,540.734,538.691,0.0
53569.0,STARLINK-4582,PAYLOAD,2024-05-17 17:43:34,15.08847485,0.0001431,53.2149,141.272,83.5416,276.5739,-7.9321e-05,-1.55e-05,0.0,0 STARLINK-4582,1 53569U 22101AU  24138.73859042 -.00001550  00000-0 -79321-4 0  9999,2 53569  53.2149 141.2720 0001431  83.5416 276.5739 15.08847485 97338,6917.858,95.437,540.712,538.733,0.0
53569.0,STARLINK-4582,PAYLOAD,2024-05-18 04:51:16,15.08840045,0.0001619,53.2166,139.191,83.4535,276.6642,-1.1891e-05,-4.77e-06,0.0,0 STARLINK-4582,1 53569U 22101AU  24139.20227709 -.00000477  00000-0 -11891-4 0  9996,2 53569  53.2166 139.1910 0001619  83.4535 276.6642 15.08840045 96735,6917.88,95.438,540.865,538.625,0.0
53569.0,STARLINK-4582,PAYLOAD,2024-05-18 06:26:39,15.08842079,0.0001472,53.2156,138.8917,94.1999,265.9161,-1.7453e-07,-2.91e-06,0.0,0 STARLINK-4582,1 53569U 22101AU  24139.26851419 -.00000291  00000-0 -17453-6 0  9999,2 53569  53.2156 138.8917 0001472  94.1999 265.9161 15.08842079 97419,6917.874,95.437,540.757,538.721,0.0
53569.0,STARLINK-4582,PAYLOAD,2024-05-18 17:34:21,15.08840025,0.0001444,53.2159,136.8097,95.659,264.4567,2.891e-06,-2.42e-06,0.0,0 STARLINK-4582,1 53569U 22101AU  24139.73219479 -.00000242  00000-0  28910-5 0  9999,2 53569  53.2159 136.8097 0001444  95.6590 264.4567 15.08840025 97481,6917.88,95.438,540.744,538.746,0.0
53569.0,STARLINK-4582,PAYLOAD,2024-05-19 06:17:26,15.08838061,0.00015,53.2159,134.4309,98.9994,261.1168,4.1964e-05,3.8e-06,0.0,0 STARLINK-4582,1 53569U 22101AU  24140.26211511  .00000380  00000-0  41964-4 0  9993,2 53569  53.2159 134.4309 0001500  98.9994 261.1168 15.08838061 97565,6917.886,95.438,540.789,538.714,0.0
53569.0,STARLINK-4582,PAYLOAD,2024-05-20 04:32:52,15.08821854,0.0001583,53.2165,130.2668,101.3703,258.7467,-4.9074e-05,-1.069e-05,0.0,0 STARLINK-4582,1 53569U 22101AU  24141.18949582 -.00001069  00000-0 -49074-4 0  9998,2 53569  53.2165 130.2668 0001583 101.3703 258.7467 15.08821854 97030,6917.936,95.439,540.896,538.706,0.0
53569.0,STARLINK-4582,PAYLOAD,2024-05-20 09:19:01,15.0882342,0.0001537,53.2164,129.3749,103.7078,256.4085,-4.6224e-05,-1.023e-05,0.0,0 STARLINK-4582,1 53569U 22101AU  24141.38821654 -.00001023  00000-0 -46224-4 0  9993,2 53569  53.2164 129.3749 0001537 103.7078 256.4085 15.08823420 97737,6917.931,95.439,540.859,538.733,0.0
53569.0,STARLINK-4582,PAYLOAD,2024-05-21 04:23:38,15.08838407,0.0001423,53.2167,125.8091,94.5463,265.5692,0.00010843,1.438e-05,0.0,0 STARLINK-4582,1 53569U 22101AU  24142.18308753  .00001438  00000-0  10843-3 0  9997,2 53569  53.2167 125.8091 0001423  94.5463 265.5692 15.08838407 97185,6917.885,95.438,540.735,538.766,0.0
53569.0,STARLINK-4582,PAYLOAD,2024-05-21 09:09:47,15.08844984,0.000153,53.2169,124.9166,104.9238,255.1924,0.00012368,1.681e-05,0.0,0 STARLINK-4582,1 53569U 22101AU  24142.38180347  .00001681  00000-0  12368-3 0  9990,2 53569  53.2169 124.9166 0001530 104.9238 255.1924 15.08844984 97882,6917.865,95.437,540.789,538.672,0.0
53569.0,STARLINK-4582,PAYLOAD,2024-05-22 09:00:34,15.08848633,0.0001429,53.2169,120.4553,100.9618,259.1535,0.00026711,3.967e-05,0.0,0 STARLINK-4582,1 53569U 22101AU  24143.37540088  .00003967  00000-0  26711-3 0  9998,2 53569  53.2169 120.4553 0001429 100.9618 259.1535 15.08848633 97368,6917.854,95.437,540.708,538.73,0.0
53569.0,STARLINK-4582,PAYLOAD,2024-05-23 04:05:12,15.08844717,0.0001671,53.2172,116.8836,115.7776,244.3389,-1.8473e-05,-5.82e-06,0.0,0 STARLINK-4582,1 53569U 22101AU  24144.17028690 -.00000582  00000-0 -18473-4 0  9996,2 53569  53.2172 116.8836 0001671 115.7776 244.3389 15.08844717 97488,6917.866,95.437,540.887,538.575,0.0
53569.0,STARLINK-4582,PAYLOAD,2024-05-23 07:15:59,15.08844106,0.0001413,53.2174,116.2923,89.0939,271.0215,4.6613e-06,-2.14e-06,0.0,0 STARLINK-4582,1 53569U 22101AU  24144.30276785 -.00000214  00000-0  46613-5 0  9990,2 53569  53.2174 116.2923 0001413  89.0939 271.0215 15.08844106 98173,6917.868,95.437,540.71,538.755,0.0
53569.0,STARLINK-4582,PAYLOAD,2024-05-24 07:06:44,15.08856998,0.0001509,53.2175,111.8294,98.2956,261.8207,8.2279e-05,1.022e-05,0.0,0 STARLINK-4582,1 53569U 22101AU  24145.29635330  .00001022  00000-0  82279-4 0  9998,2 53569  53.2175 111.8294 0001509  98.2956 261.8207 15.08856998 97655,6917.828,95.436,540.737,538.65,0.0
53569.0,STARLINK-4582,PAYLOAD,2024-05-24 21:25:14,15.08835925,0.0001758,53.2169,109.157,77.5136,282.6053,7.4642e-05,9e-06,0.0,0 STARLINK-4582,1 53569U 22101AU  24145.89252880  .00000900  00000-0  74642-4 0  9998,2 53569  53.2169 109.1570 0001758  77.5136 282.6053 15.08835925 97748,6917.893,95.438,540.974,538.542,0.0
53569.0,STARLINK-4582,PAYLOAD,2024-05-25 03:46:46,15.08837015,0.0001355,53.2167,107.9647,106.9889,253.1252,3.1029e-05,2.06e-06,0.0,0 STARLINK-4582,1 53569U 22101AU  24146.15748683  .00000206  00000-0  31029-4 0  9990,2 53569  53.2167 107.9647 0001355 106.9889 253.1252 15.08837015 98457,6917.89,95.438,540.692,538.817,0.0
53569.0,STARLINK-4582,PAYLOAD,2024-05-25 14:54:30,15.08814964,7.42e-05,53.2168,105.8856,91.1945,268.9132,-0.00016853,-2.967e-05,0.0,0 STARLINK-4582,1 53569U 22101AU  24146.62118398 -.00002967  00000-0 -16853-3 0  9991,2 53569  53.2168 105.8856 0000742  91.1945 268.9132 15.08814964 97856,6917.957,95.439,540.335,539.309,0.0
53569.0,STARLINK-4582,PAYLOAD,2024-05-26 03:37:33,15.08851094,0.0001207,53.2167,103.508,102.2689,257.8438,1.4782e-05,-5.3e-07,0.0,0 STARLINK-4582,1 53569U 22101AU  24147.15108022 -.00000053  00000-0  14782-4 0  9996,2 53569  53.2167 103.5080 0001207 102.2689 257.8438 15.08851094 97935,6917.846,95.437,540.546,538.876,0.0
53569.0,STARLINK-4582,PAYLOAD,2024-05-26 21:06:48,15.08838607,0.0001378,53.2171,100.2346,93.124,266.991,0.00011666,1.569e-05,0.0,0 STARLINK-4582,1 53569U 22101AU  24147.87972595  .00001569  00000-0  11666-3 0  9998,2 53569  53.2171 100.2346 0001378  93.1240 266.9910 15.08838607 98043,6917.885,95.438,540.703,538.796,0.0
53569.0,STARLINK-4582,PAYLOAD,2024-05-27 06:39:06,15.08842917,0.0001384,53.2171,98.4502,93.558,266.557,0.00014321,1.992e-05,0.0,0 STARLINK-4582,1 53569U 22101AU  24148.27716298  .00001992  00000-0  14321-3 0  9990,2 53569  53.2171  98.4502 0001384  93.5580 266.5570 15.08842917 98770,6917.871,95.437,540.694,538.779,0.0
53569.0,STARLINK-4582,PAYLOAD,2024-05-28 03:19:08,15.0883514,0.0001444,53.2173,94.5833,94.94,265.1757,1.308e-05,-8e-07,0.0,0 STARLINK-4582,1 53569U 22101AU  24149.13829154 -.00000080  00000-0  13080-4 0  9992,2 53569  53.2173  94.5833 0001444  94.9400 265.1757 15.08835140 98232,6917.895,95.438,540.759,538.761,0.0
53569.0,STARLINK-4582,PAYLOAD,2024-05-28 20:48:22,15.08838236,0.0001399,53.2173,91.312,94.6442,265.471,1.1722e-05,-1.01e-06,0.0,0 STARLINK-4582,1 53569U 22101AU  24149.86693062 -.00000101  00000-0  11722-4 0  9994,2 53569  53.2173  91.3120 0001399  94.6442 265.4710 15.08838236 99016,6917.886,95.438,540.719,538.783,0.0
